[{"OBJECT_NAME":"ASTROCAST-0404","OBJECT_ID":"2023-001DH","EPOCH":"2026-03-09T19:24:02.920896","MEAN_MOTION":15.26309833,"ECCENTRICITY":0.00068478,"INCLINATION":97.5646,"RA_OF_ASC_NODE":161.5422,"ARG_OF_PERICENTER":1.1317,"MEAN_ANOMALY":358.9936,"EPHEMERIS_TYPE":0,"CLASSIFICATION_TYPE":"U","NORAD_CAT_ID":55112,"ELEMENT_SET_NO":999,"REV_AT_EPOCH":12936,"BSTAR":0.00034435555,"MEAN_MOTION_DOT":8.87e-5,"MEAN_MOTION_DDOT":0},{"OBJECT_NAME":"STARLINK-30305","OBJECT_ID":"2023-134E","EPOCH":"2026-03-09T08:41:47.221440","MEAN_MOTION":15.27572198,"ECCENTRICITY":0.00013349,"INCLINATION":42.9993,"RA_OF_ASC_NODE":196.5981,"ARG_OF_PERICENTER":208.7239,"MEAN_ANOMALY":151.354,"EPHEMERIS_TYPE":0,"CLASSIFICATION_TYPE":"U","NORAD_CAT_ID":57775,"ELEMENT_SET_NO":999,"REV_AT_EPOCH":13945,"BSTAR":-1.3812342e-5,"MEAN_MOTION_DOT":-6.42e-6,"MEAN_MOTION_DDOT":0}]
