ASTROCAST-0404          
1 55112U 23001DH  26068.80836714  .00008870  00000+0  34436-3 0  9994
2 55112  97.5646 161.5422 0006847   1.1317 358.9936 15.26309833129366
STARLINK-30305          
1 57775U 23134E   26068.36235210 -.00000642  00000+0 -13812-4 0  9990
2 57775  42.9993 196.5981 0001334 208.7239 151.3540 15.27572198139458
